[Satellite]
VERSION=1.1
NAME=XW-2B
NICKNAME=XW-2B
TLE1=1 40911U 15049N   19317.80619021  .00000782  00000-0  44170-4 0  9999
TLE2=2 40911  97.4722 317.8374 0015365  48.2277  36.2548 15.15950663229340
STATUS=0
